ONEWEB-0435             
1 51632U 22012L   26204.08290193 -.00000596  00000+0 -17425-2 0  9992
2 51632  87.8818  29.1222 0001955  98.3078 261.8271 13.10372523214014
ONEWEB-0436             
1 51633U 22012M   26203.90221693  .00000033  00000+0  50887-4 0  9997
2 51633  87.9164 358.7440 0001961  99.4583 260.6770 13.17648153218380
ONEWEB-0438             
1 51634U 22012N   26204.06763769 -.00000307  00000+0 -91643-3 0  9991
2 51634  87.8814  29.1290 0001701  84.0061 276.1260 13.10370055214048
ONEWEB-0439             
1 51635U 22012P   26204.07104170 -.00001253  00000+0 -36257-2 0  9998
2 51635  87.8811  29.1162 0001698  89.0350 271.0972 13.10363393214024
ONEWEB-0442             
1 51636U 22012Q   26203.89461445  .00000045  00000+0  82895-4 0  9996
2 51636  87.9154 358.7752 0001491  77.1081 283.0217 13.17651394218377
ONEWEB-0443             
1 51637U 22012R   26204.14183565  .00000036  00000+0  59523-4 0  9992
2 51637  87.9157 358.7273 0001532 102.1327 257.9977 13.17647941218452
ONEWEB-0444             
1 51638U 22012S   26204.06086012  .00000182  00000+0  48530-3 0  9990
2 51638  87.8817  29.1166 0001670  95.3547 264.7771 13.10369624214035
ONEWEB-0445             
1 51639U 22012T   26204.08119999 -.00000594  00000+0 -17387-2 0  9998
2 51639  87.8827  29.1032 0001880  86.1759 273.9583 13.10372198214049
ONEWEB-0446             
1 51640U 22012U   26204.05916388  .00000145  00000+0  37958-3 0  9991
2 51640  87.8813  29.1344 0002040  81.6492 278.4867 13.10369303214022
ONEWEB-0448             
1 51641U 22012V   26204.06424895 -.00000098  00000+0 -31793-3 0  9990
2 51641  87.8812  29.1282 0001814  91.8828 268.2507 13.10369420213990
ONEWEB-0449             
1 51642U 22012W   26204.06933519 -.00000342  00000+0 -10174-2 0  9990
2 51642  87.8824  29.1142 0001730  68.1111 292.0200 13.10369839214000
ONEWEB-0451             
1 51643U 22012X   26203.89883242  .00000064  00000+0  13076-3 0  9992
2 51643  87.9166 358.7433 0001651  90.9098 269.2223 13.17648129218367
ONEWEB-0452             
1 51644U 22012Y   26203.66934674  .00000059  00000+0  11902-3 0  9994
2 51644  87.9152 358.8220 0001539  96.8778 263.2529 13.17647979218346
ONEWEB-0456             
1 51646U 22012AA  26204.23052191 -.00000570  00000+0 -16684-2 0  9996
2 51646  87.8828  29.0730 0001818  94.1753 265.9582 13.10371127214069
ONEWEB-0457             
1 51647U 22012AB  26204.20835356  .00000463  00000+0  12900-2 0  9992
2 51647  87.8816  29.0920 0001950  78.0254 282.1092 13.10370321214064
ONEWEB-0458             
1 51648U 22012AC  26204.07696815 -.00000620  00000+0 -18136-2 0  9997
2 51648  87.8819  29.1069 0001600  90.8997 269.2314 13.10371409214006
