{"fetched_at":"2026-07-23T17:55:08.470Z","source":"https://celestrak.org/NORAD/elements/gp.php?GROUP=oneweb&FORMAT=JSON","constellation":"oneweb","records":[{"OBJECT_NAME":"ONEWEB-0435","OBJECT_ID":"2022-012L","EPOCH":"2026-07-23T01:59:22.726752","CLASSIFICATION_TYPE":"U","MEAN_MOTION":13.10372523,"ECCENTRICITY":0.00019553,"INCLINATION":87.8818,"RA_OF_ASC_NODE":29.1222,"ARG_OF_PERICENTER":98.3078,"MEAN_ANOMALY":261.8271,"EPHEMERIS_TYPE":0,"NORAD_CAT_ID":51632,"ELEMENT_SET_NO":999,"REV_AT_EPOCH":21401,"BSTAR":-0.0017425403,"MEAN_MOTION_DOT":-0.00000596,"MEAN_MOTION_DDOT":0},{"OBJECT_NAME":"ONEWEB-0436","OBJECT_ID":"2022-012M","EPOCH":"2026-07-22T21:39:11.542752","CLASSIFICATION_TYPE":"U","MEAN_MOTION":13.17648153,"ECCENTRICITY":0.00019611,"INCLINATION":87.9164,"RA_OF_ASC_NODE":358.744,"ARG_OF_PERICENTER":99.4583,"MEAN_ANOMALY":260.677,"EPHEMERIS_TYPE":0,"NORAD_CAT_ID":51633,"ELEMENT_SET_NO":999,"REV_AT_EPOCH":21838,"BSTAR":0.000050887342,"MEAN_MOTION_DOT":3.3e-7,"MEAN_MOTION_DDOT":0},{"OBJECT_NAME":"ONEWEB-0438","OBJECT_ID":"2022-012N","EPOCH":"2026-07-23T01:37:23.896416","CLASSIFICATION_TYPE":"U","MEAN_MOTION":13.10370055,"ECCENTRICITY":0.00017018,"INCLINATION":87.8814,"RA_OF_ASC_NODE":29.129,"ARG_OF_PERICENTER":84.0061,"MEAN_ANOMALY":276.126,"EPHEMERIS_TYPE":0,"NORAD_CAT_ID":51634,"ELEMENT_SET_NO":999,"REV_AT_EPOCH":21404,"BSTAR":-0.00091642736,"MEAN_MOTION_DOT":-0.00000307,"MEAN_MOTION_DDOT":0},{"OBJECT_NAME":"ONEWEB-0439","OBJECT_ID":"2022-012P","EPOCH":"2026-07-23T01:42:18.002880","CLASSIFICATION_TYPE":"U","MEAN_MOTION":13.10363393,"ECCENTRICITY":0.00016989,"INCLINATION":87.8811,"RA_OF_ASC_NODE":29.1162,"ARG_OF_PERICENTER":89.035,"MEAN_ANOMALY":271.0972,"EPHEMERIS_TYPE":0,"NORAD_CAT_ID":51635,"ELEMENT_SET_NO":999,"REV_AT_EPOCH":21402,"BSTAR":-0.0036256575,"MEAN_MOTION_DOT":-0.00001253,"MEAN_MOTION_DDOT":0},{"OBJECT_NAME":"ONEWEB-0442","OBJECT_ID":"2022-012Q","EPOCH":"2026-07-22T21:28:14.688480","CLASSIFICATION_TYPE":"U","MEAN_MOTION":13.17651394,"ECCENTRICITY":0.00014912,"INCLINATION":87.9154,"RA_OF_ASC_NODE":358.7752,"ARG_OF_PERICENTER":77.1081,"MEAN_ANOMALY":283.0217,"EPHEMERIS_TYPE":0,"NORAD_CAT_ID":51636,"ELEMENT_SET_NO":999,"REV_AT_EPOCH":21837,"BSTAR":0.000082894546,"MEAN_MOTION_DOT":4.5e-7,"MEAN_MOTION_DDOT":0},{"OBJECT_NAME":"ONEWEB-0443","OBJECT_ID":"2022-012R","EPOCH":"2026-07-23T03:24:14.600160","CLASSIFICATION_TYPE":"U","MEAN_MOTION":13.17647941,"ECCENTRICITY":0.00015321,"INCLINATION":87.9157,"RA_OF_ASC_NODE":358.7273,"ARG_OF_PERICENTER":102.1327,"MEAN_ANOMALY":257.9977,"EPHEMERIS_TYPE":0,"NORAD_CAT_ID":51637,"ELEMENT_SET_NO":999,"REV_AT_EPOCH":21845,"BSTAR":0.000059523395,"MEAN_MOTION_DOT":3.6e-7,"MEAN_MOTION_DDOT":0},{"OBJECT_NAME":"ONEWEB-0444","OBJECT_ID":"2022-012S","EPOCH":"2026-07-23T01:27:38.314368","CLASSIFICATION_TYPE":"U","MEAN_MOTION":13.10369624,"ECCENTRICITY":0.00016706,"INCLINATION":87.8817,"RA_OF_ASC_NODE":29.1166,"ARG_OF_PERICENTER":95.3547,"MEAN_ANOMALY":264.7771,"EPHEMERIS_TYPE":0,"NORAD_CAT_ID":51638,"ELEMENT_SET_NO":999,"REV_AT_EPOCH":21403,"BSTAR":0.00048530318,"MEAN_MOTION_DOT":0.00000182,"MEAN_MOTION_DDOT":0},{"OBJECT_NAME":"ONEWEB-0445","OBJECT_ID":"2022-012T","EPOCH":"2026-07-23T01:56:55.679136","CLASSIFICATION_TYPE":"U","MEAN_MOTION":13.10372198,"ECCENTRICITY":0.00018809,"INCLINATION":87.8827,"RA_OF_ASC_NODE":29.1032,"ARG_OF_PERICENTER":86.1759,"MEAN_ANOMALY":273.9583,"EPHEMERIS_TYPE":0,"NORAD_CAT_ID":51639,"ELEMENT_SET_NO":999,"REV_AT_EPOCH":21404,"BSTAR":-0.001738706,"MEAN_MOTION_DOT":-0.00000594,"MEAN_MOTION_DDOT":0},{"OBJECT_NAME":"ONEWEB-0446","OBJECT_ID":"2022-012U","EPOCH":"2026-07-23T01:25:11.759232","CLASSIFICATION_TYPE":"U","MEAN_MOTION":13.10369303,"ECCENTRICITY":0.00020407,"INCLINATION":87.8813,"RA_OF_ASC_NODE":29.1344,"ARG_OF_PERICENTER":81.6492,"MEAN_ANOMALY":278.4867,"EPHEMERIS_TYPE":0,"NORAD_CAT_ID":51640,"ELEMENT_SET_NO":999,"REV_AT_EPOCH":21402,"BSTAR":0.00037957912,"MEAN_MOTION_DOT":0.00000145,"MEAN_MOTION_DDOT":0},{"OBJECT_NAME":"ONEWEB-0448","OBJECT_ID":"2022-012V","EPOCH":"2026-07-23T01:32:31.109280","CLASSIFICATION_TYPE":"U","MEAN_MOTION":13.1036942,"ECCENTRICITY":0.00018141,"INCLINATION":87.8812,"RA_OF_ASC_NODE":29.1282,"ARG_OF_PERICENTER":91.8828,"MEAN_ANOMALY":268.2507,"EPHEMERIS_TYPE":0,"NORAD_CAT_ID":51641,"ELEMENT_SET_NO":999,"REV_AT_EPOCH":21399,"BSTAR":-0.00031793432,"MEAN_MOTION_DOT":-9.8e-7,"MEAN_MOTION_DDOT":0},{"OBJECT_NAME":"ONEWEB-0449","OBJECT_ID":"2022-012W","EPOCH":"2026-07-23T01:39:50.560416","CLASSIFICATION_TYPE":"U","MEAN_MOTION":13.10369839,"ECCENTRICITY":0.00017304,"INCLINATION":87.8824,"RA_OF_ASC_NODE":29.1142,"ARG_OF_PERICENTER":68.1111,"MEAN_ANOMALY":292.02,"EPHEMERIS_TYPE":0,"NORAD_CAT_ID":51642,"ELEMENT_SET_NO":999,"REV_AT_EPOCH":21400,"BSTAR":-0.001017382,"MEAN_MOTION_DOT":-0.00000342,"MEAN_MOTION_DDOT":0},{"OBJECT_NAME":"ONEWEB-0451","OBJECT_ID":"2022-012X","EPOCH":"2026-07-22T21:34:19.121088","CLASSIFICATION_TYPE":"U","MEAN_MOTION":13.17648129,"ECCENTRICITY":0.00016518,"INCLINATION":87.9166,"RA_OF_ASC_NODE":358.7433,"ARG_OF_PERICENTER":90.9098,"MEAN_ANOMALY":269.2223,"EPHEMERIS_TYPE":0,"NORAD_CAT_ID":51643,"ELEMENT_SET_NO":999,"REV_AT_EPOCH":21836,"BSTAR":0.00013076455,"MEAN_MOTION_DOT":6.4e-7,"MEAN_MOTION_DDOT":0},{"OBJECT_NAME":"ONEWEB-0452","OBJECT_ID":"2022-012Y","EPOCH":"2026-07-22T16:03:51.558336","CLASSIFICATION_TYPE":"U","MEAN_MOTION":13.17647979,"ECCENTRICITY":0.00015398,"INCLINATION":87.9152,"RA_OF_ASC_NODE":358.822,"ARG_OF_PERICENTER":96.8778,"MEAN_ANOMALY":263.2529,"EPHEMERIS_TYPE":0,"NORAD_CAT_ID":51644,"ELEMENT_SET_NO":999,"REV_AT_EPOCH":21834,"BSTAR":0.00011902102,"MEAN_MOTION_DOT":5.9e-7,"MEAN_MOTION_DDOT":0},{"OBJECT_NAME":"ONEWEB-0456","OBJECT_ID":"2022-012AA","EPOCH":"2026-07-23T05:31:57.093024","CLASSIFICATION_TYPE":"U","MEAN_MOTION":13.10371127,"ECCENTRICITY":0.00018187,"INCLINATION":87.8828,"RA_OF_ASC_NODE":29.073,"ARG_OF_PERICENTER":94.1753,"MEAN_ANOMALY":265.9582,"EPHEMERIS_TYPE":0,"NORAD_CAT_ID":51646,"ELEMENT_SET_NO":999,"REV_AT_EPOCH":21406,"BSTAR":-0.0016684241,"MEAN_MOTION_DOT":-0.0000057,"MEAN_MOTION_DDOT":0},{"OBJECT_NAME":"ONEWEB-0457","OBJECT_ID":"2022-012AB","EPOCH":"2026-07-23T05:00:01.747584","CLASSIFICATION_TYPE":"U","MEAN_MOTION":13.10370321,"ECCENTRICITY":0.00019503,"INCLINATION":87.8816,"RA_OF_ASC_NODE":29.092,"ARG_OF_PERICENTER":78.0254,"MEAN_ANOMALY":282.1092,"EPHEMERIS_TYPE":0,"NORAD_CAT_ID":51647,"ELEMENT_SET_NO":999,"REV_AT_EPOCH":21406,"BSTAR":0.0012900454,"MEAN_MOTION_DOT":0.00000463,"MEAN_MOTION_DDOT":0},{"OBJECT_NAME":"ONEWEB-0458","OBJECT_ID":"2022-012AC","EPOCH":"2026-07-23T01:50:50.048160","CLASSIFICATION_TYPE":"U","MEAN_MOTION":13.10371409,"ECCENTRICITY":0.00016001,"INCLINATION":87.8819,"RA_OF_ASC_NODE":29.1069,"ARG_OF_PERICENTER":90.8997,"MEAN_ANOMALY":269.2314,"EPHEMERIS_TYPE":0,"NORAD_CAT_ID":51648,"ELEMENT_SET_NO":999,"REV_AT_EPOCH":21400,"BSTAR":-0.001813642,"MEAN_MOTION_DOT":-0.0000062,"MEAN_MOTION_DDOT":0}]}
